CCSDS_OMM_VERS = 2.0
CREATION_DATE  = 
ORIGINATOR     = 

OBJECT_NAME    = UNKNOWN
OBJECT_ID      = 
CENTER_NAME    = EARTH
REF_FRAME      = TEME
TIME_SYSTEM    = UTC
MEAN_ELEMENT_THEORY = SGP/SGP4

EPOCH          = 2026-03-14T08:53:42.545184
MEAN_MOTION    = 14.10460805
ECCENTRICITY   = .0026814
INCLINATION    = 98.7749
RA_OF_ASC_NODE = 113.3642
ARG_OF_PERICENTER = 27.3449
MEAN_ANOMALY   = 349.2031

EPHEMERIS_TYPE = 0
CLASSIFICATION_TYPE = U
NORAD_CAT_ID   = 87590
ELEMENT_SET_NO = 999
REV_AT_EPOCH   = 16716
BSTAR          = .34184E-3
MEAN_MOTION_DOT = .567E-5
MEAN_MOTION_DDOT = 0

CCSDS_OMM_VERS = 2.0
CREATION_DATE  = 
ORIGINATOR     = 

OBJECT_NAME    = UNKNOWN
OBJECT_ID      = 
CENTER_NAME    = EARTH
REF_FRAME      = TEME
TIME_SYSTEM    = UTC
MEAN_ELEMENT_THEORY = SGP/SGP4

EPOCH          = 2026-03-20T10:36:52.746624
MEAN_MOTION    = 12.47023151
ECCENTRICITY   = .0628451
INCLINATION    = 66.0366
RA_OF_ASC_NODE = 316.4378
ARG_OF_PERICENTER = 96.6988
MEAN_ANOMALY   = 77.3263

EPHEMERIS_TYPE = 0
CLASSIFICATION_TYPE = U
NORAD_CAT_ID   = 87616
ELEMENT_SET_NO = 999
REV_AT_EPOCH   = 54841
BSTAR          = .446E-2
MEAN_MOTION_DOT = .1273E-4
MEAN_MOTION_DDOT = 0

CCSDS_OMM_VERS = 2.0
CREATION_DATE  = 
ORIGINATOR     = 

OBJECT_NAME    = UNKNOWN
OBJECT_ID      = 
CENTER_NAME    = EARTH
REF_FRAME      = TEME
TIME_SYSTEM    = UTC
MEAN_ELEMENT_THEORY = SGP/SGP4

EPOCH          = 2026-03-19T19:21:05.873472
MEAN_MOTION    = 14.71413620
ECCENTRICITY   = .0094704
INCLINATION    = 98.6913
RA_OF_ASC_NODE = 27.5659
ARG_OF_PERICENTER = 305.4739
MEAN_ANOMALY   = 53.7655

EPHEMERIS_TYPE = 0
CLASSIFICATION_TYPE = U
NORAD_CAT_ID   = 87624
ELEMENT_SET_NO = 999
REV_AT_EPOCH   = 59454
BSTAR          = .79564E-3
MEAN_MOTION_DOT = .5225E-4
MEAN_MOTION_DDOT = 0

CCSDS_OMM_VERS = 2.0
CREATION_DATE  = 
ORIGINATOR     = 

OBJECT_NAME    = UNKNOWN
OBJECT_ID      = 
CENTER_NAME    = EARTH
REF_FRAME      = TEME
TIME_SYSTEM    = UTC
MEAN_ELEMENT_THEORY = SGP/SGP4

EPOCH          = 2026-03-20T13:26:23.996544
MEAN_MOTION    = 14.28339605
ECCENTRICITY   = .0055187
INCLINATION    = 70.8577
RA_OF_ASC_NODE = 155.2476
ARG_OF_PERICENTER = 125.6100
MEAN_ANOMALY   = 235.0188

EPHEMERIS_TYPE = 0
CLASSIFICATION_TYPE = U
NORAD_CAT_ID   = 87672
ELEMENT_SET_NO = 999
REV_AT_EPOCH   = 63842
BSTAR          = .64753E-3
MEAN_MOTION_DOT = .1595E-4
MEAN_MOTION_DDOT = 0

CCSDS_OMM_VERS = 2.0
CREATION_DATE  = 
ORIGINATOR     = 

OBJECT_NAME    = UNKNOWN
OBJECT_ID      = 
CENTER_NAME    = EARTH
REF_FRAME      = TEME
TIME_SYSTEM    = UTC
MEAN_ELEMENT_THEORY = SGP/SGP4

EPOCH          = 2026-03-16T03:30:58.064832
MEAN_MOTION    = 13.71346478
ECCENTRICITY   = .0149784
INCLINATION    = 66.7343
RA_OF_ASC_NODE = 237.3908
ARG_OF_PERICENTER = 98.3105
MEAN_ANOMALY   = 263.4978

EPHEMERIS_TYPE = 0
CLASSIFICATION_TYPE = U
NORAD_CAT_ID   = 87681
ELEMENT_SET_NO = 999
REV_AT_EPOCH   = 61464
BSTAR          = .11776E-2
MEAN_MOTION_DOT = .1073E-4
MEAN_MOTION_DDOT = 0

CCSDS_OMM_VERS = 2.0
CREATION_DATE  = 
ORIGINATOR     = 

OBJECT_NAME    = UNKNOWN
OBJECT_ID      = 
CENTER_NAME    = EARTH
REF_FRAME      = TEME
TIME_SYSTEM    = UTC
MEAN_ELEMENT_THEORY = SGP/SGP4

EPOCH          = 2026-03-20T11:57:14.654592
MEAN_MOTION    = 14.01614057
ECCENTRICITY   = .0582443
INCLINATION    = 65.7900
RA_OF_ASC_NODE = 99.5748
ARG_OF_PERICENTER = 357.3893
MEAN_ANOMALY   = 2.4173

EPHEMERIS_TYPE = 0
CLASSIFICATION_TYPE = U
NORAD_CAT_ID   = 87690
ELEMENT_SET_NO = 999
REV_AT_EPOCH   = 62107
BSTAR          = .86943E-3
MEAN_MOTION_DOT = .6034E-4
MEAN_MOTION_DDOT = 0

CCSDS_OMM_VERS = 2.0
CREATION_DATE  = 
ORIGINATOR     = 

OBJECT_NAME    = UNKNOWN
OBJECT_ID      = 
CENTER_NAME    = EARTH
REF_FRAME      = TEME
TIME_SYSTEM    = UTC
MEAN_ELEMENT_THEORY = SGP/SGP4

EPOCH          = 2026-03-20T11:58:54.584832
MEAN_MOTION    = 14.65380526
ECCENTRICITY   = .0102816
INCLINATION    = 98.6756
RA_OF_ASC_NODE = 273.4128
ARG_OF_PERICENTER = 324.8713
MEAN_ANOMALY   = 64.3686

EPHEMERIS_TYPE = 0
CLASSIFICATION_TYPE = U
NORAD_CAT_ID   = 87706
ELEMENT_SET_NO = 999
REV_AT_EPOCH   = 59283
BSTAR          = .48247E-3
MEAN_MOTION_DOT = .2758E-4
MEAN_MOTION_DDOT = 0

CCSDS_OMM_VERS = 2.0
CREATION_DATE  = 
ORIGINATOR     = 

OBJECT_NAME    = UNKNOWN
OBJECT_ID      = 
CENTER_NAME    = EARTH
REF_FRAME      = TEME
TIME_SYSTEM    = UTC
MEAN_ELEMENT_THEORY = SGP/SGP4

EPOCH          = 2026-03-20T12:11:13.152768
MEAN_MOTION    = 15.11628365
ECCENTRICITY   = .000716
INCLINATION    = 82.8698
RA_OF_ASC_NODE = 165.7399
ARG_OF_PERICENTER = 129.5705
MEAN_ANOMALY   = 230.6160

EPHEMERIS_TYPE = 0
CLASSIFICATION_TYPE = U
NORAD_CAT_ID   = 87725
ELEMENT_SET_NO = 999
REV_AT_EPOCH   = 64861
BSTAR          = .52003E-2
MEAN_MOTION_DOT = .89398E-3
MEAN_MOTION_DDOT = 0

CCSDS_OMM_VERS = 2.0
CREATION_DATE  = 
ORIGINATOR     = 

OBJECT_NAME    = UNKNOWN
OBJECT_ID      = 
CENTER_NAME    = EARTH
REF_FRAME      = TEME
TIME_SYSTEM    = UTC
MEAN_ELEMENT_THEORY = SGP/SGP4

EPOCH          = 2026-03-20T11:56:36.066624
MEAN_MOTION    = 13.74523561
ECCENTRICITY   = .0031398
INCLINATION    = 82.9484
RA_OF_ASC_NODE = 161.7897
ARG_OF_PERICENTER = 91.9887
MEAN_ANOMALY   = 268.4865

EPHEMERIS_TYPE = 0
CLASSIFICATION_TYPE = U
NORAD_CAT_ID   = 87730
ELEMENT_SET_NO = 999
REV_AT_EPOCH   = 59876
BSTAR          = .84462E-4
MEAN_MOTION_DOT = .96E-6
MEAN_MOTION_DDOT = 0

CCSDS_OMM_VERS = 2.0
CREATION_DATE  = 
ORIGINATOR     = 

OBJECT_NAME    = UNKNOWN
OBJECT_ID      = 
CENTER_NAME    = EARTH
REF_FRAME      = TEME
TIME_SYSTEM    = UTC
MEAN_ELEMENT_THEORY = SGP/SGP4

EPOCH          = 2026-03-20T14:45:59.516352
MEAN_MOTION    = 13.72359179
ECCENTRICITY   = .0132383
INCLINATION    = 99.3634
RA_OF_ASC_NODE = 314.2381
ARG_OF_PERICENTER = 294.7270
MEAN_ANOMALY   = 64.0147

EPHEMERIS_TYPE = 0
CLASSIFICATION_TYPE = U
NORAD_CAT_ID   = 87737
ELEMENT_SET_NO = 999
REV_AT_EPOCH   = 61728
BSTAR          = .88626E-4
MEAN_MOTION_DOT = .42E-6
MEAN_MOTION_DDOT = 0

CCSDS_OMM_VERS = 2.0
CREATION_DATE  = 
ORIGINATOR     = 

OBJECT_NAME    = UNKNOWN
OBJECT_ID      = 
CENTER_NAME    = EARTH
REF_FRAME      = TEME
TIME_SYSTEM    = UTC
MEAN_ELEMENT_THEORY = SGP/SGP4

EPOCH          = 2026-03-20T11:20:32.835264
MEAN_MOTION    = 14.36694587
ECCENTRICITY   = .0359922
INCLINATION    = 65.6697
RA_OF_ASC_NODE = 253.0502
ARG_OF_PERICENTER = 25.6328
MEAN_ANOMALY   = 5.1698

EPHEMERIS_TYPE = 0
CLASSIFICATION_TYPE = U
NORAD_CAT_ID   = 87764
ELEMENT_SET_NO = 999
REV_AT_EPOCH   = 63315
BSTAR          = .63856E-3
MEAN_MOTION_DOT = .3864E-4
MEAN_MOTION_DDOT = 0

CCSDS_OMM_VERS = 2.0
CREATION_DATE  = 
ORIGINATOR     = 

OBJECT_NAME    = UNKNOWN
OBJECT_ID      = 
CENTER_NAME    = EARTH
REF_FRAME      = TEME
TIME_SYSTEM    = UTC
MEAN_ELEMENT_THEORY = SGP/SGP4

EPOCH          = 2026-03-19T08:39:49.832352
MEAN_MOTION    = 13.19545345
ECCENTRICITY   = .0119849
INCLINATION    = 100.7424
RA_OF_ASC_NODE = 281.6222
ARG_OF_PERICENTER = 143.2141
MEAN_ANOMALY   = 217.7271

EPHEMERIS_TYPE = 0
CLASSIFICATION_TYPE = U
NORAD_CAT_ID   = 87771
ELEMENT_SET_NO = 999
REV_AT_EPOCH   = 54783
BSTAR          = .32568E-3
MEAN_MOTION_DOT = .89E-6
MEAN_MOTION_DDOT = 0

