UNKNOWN                 
1 87590U          26073.37063131  .00000567  00000+0  34184-3 0  9991
2 87590  98.7749 113.3642 0026814  27.3449 349.2031 14.10460805167167
UNKNOWN                 
1 87616U          26079.44227716  .00001273  00000+0  44600-2 0  9993
2 87616  66.0366 316.4378 0628451  96.6988  77.3263 12.47023151548417
UNKNOWN                 
1 87624U          26078.80631798  .00005225  00000+0  79564-3 0  9999
2 87624  98.6913  27.5659 0094704 305.4739  53.7655 14.71413620594541
UNKNOWN                 
1 87672U          26079.55999996  .00001595  00000+0  64753-3 0  9992
2 87672  70.8577 155.2476 0055187 125.6100 235.0188 14.28339605638428
UNKNOWN                 
1 87681U          26075.14650538  .00001073  00000+0  11776-2 0  9996
2 87681  66.7343 237.3908 0149784  98.3105 263.4978 13.71346478614646
UNKNOWN                 
1 87690U          26079.49808628  .00006034  00000+0  86943-3 0  9994
2 87690  65.7900  99.5748 0582443 357.3893   2.4173 14.01614057621077
UNKNOWN                 
1 87706U          26079.49924288  .00002758  00000+0  48247-3 0  9997
2 87706  98.6756 273.4128 0102816 324.8713  64.3686 14.65380526592834
UNKNOWN                 
1 87725U          26079.50779112  .00089398  00000+0  52003-2 0  9993
2 87725  82.8698 165.7399 0007160 129.5705 230.6160 15.11628365648616
UNKNOWN                 
1 87730U          26079.49763966  .00000096  00000+0  84462-4 0  9991
2 87730  82.9484 161.7897 0031398  91.9887 268.4865 13.74523561598768
UNKNOWN                 
1 87737U          26079.61527218  .00000042  00000+0  88626-4 0  9997
2 87737  99.3634 314.2381 0132383 294.7270  64.0147 13.72359179617284
UNKNOWN                 
1 87764U          26079.47260226  .00003864  00000+0  63856-3 0  9996
2 87764  65.6697 253.0502 0359922  25.6328   5.1698 14.36694587633156
UNKNOWN                 
1 87771U          26078.36099343  .00000089  00000+0  32568-3 0  9993
2 87771 100.7424 281.6222 0119849 143.2141 217.7271 13.19545345547835
